OBJECT_NAME,OBJECT_ID,EPOCH,MEAN_MOTION,ECCENTRICITY,INCLINATION,RA_OF_ASC_NODE,ARG_OF_PERICENTER,MEAN_ANOMALY,EPHEMERIS_TYPE,CLASSIFICATION_TYPE,NORAD_CAT_ID,ELEMENT_SET_NO,REV_AT_EPOCH,BSTAR,MEAN_MOTION_DOT,MEAN_MOTION_DDOT
TDRS 3,1988-091B,2026-07-13T06:11:38.557824,1.00263169,.00370298,12.5822,340.8266,355.4835,358.5834,0,U,19548,999,12564,0,-.304E-5,0
FLTSATCOM 8 (USA 46),1989-077A,2026-07-12T19:14:20.037984,1.00264240,.00034723,12.4142,351.0067,69.8924,283.9138,0,U,20253,999,26081,0,-.372E-5,0
SKYNET 4C,1990-079A,2026-07-13T02:27:22.540608,0.98577722,.00027927,13.3299,349.6488,136.2115,45.7806,0,U,20776,999,29,0,-.1E-5,0
TDRS 5,1991-054B,2026-07-13T07:20:19.165632,1.00272661,.00074467,14.0678,353.5825,257.8458,342.1330,0,U,21639,999,12797,0,.77E-6,0
TDRS 6,1993-003B,2026-07-13T07:00:38.545920,1.00280452,.0008254,14.1831,356.8618,183.7825,169.6176,0,U,22314,999,12266,0,-.303E-5,0
UFO 2 (USA 95),1993-056A,2026-07-13T03:20:02.738112,1.00269447,.00026165,11.9040,3.4086,8.5210,357.7362,0,U,22787,999,11881,0,.117E-5,0
USA 99 (MILSTAR-1 1),1994-009A,2026-07-11T15:22:25.455360,0.98720423,.00016267,17.6619,27.4499,196.6248,164.5715,0,U,22988,999,3319,0,-.2E-7,0
UFO 4 (USA 108),1995-003A,2026-07-13T05:43:41.916576,1.00275988,.00031383,9.6746,13.0177,97.3719,78.9981,0,U,23467,999,11521,0,-.28E-6,0
TDRS 7,1995-035B,2026-07-12T22:29:16.382688,1.00274480,.00115642,13.3664,348.0100,85.8885,283.4852,0,U,23613,999,11351,0,-.246E-5,0
USA 115 (MILSTAR-1 2),1995-060A,2026-07-13T05:32:03.822720,1.00272776,.00060652,14.0819,3.5490,123.7777,156.7805,0,U,23712,999,3314,0,-.211E-5,0
INMARSAT 3-F1,1996-020A,2026-07-13T05:37:13.158912,0.99979889,.00044188,10.6534,46.3907,86.5841,119.7415,0,U,23839,999,11051,0,.35E-6,0
INMARSAT 3-F2,1996-053A,2026-07-12T22:39:22.914144,0.99992754,.00064,9.9131,53.6706,52.7758,288.2453,0,U,24307,999,10917,0,-.368E-5,0
INMARSAT 3-F3,1996-070A,2026-07-13T06:41:41.138304,0.99994514,.00035419,10.3728,49.3991,74.2910,283.7749,0,U,24674,999,10816,0,.39E-6,0
USA 134,1997-065A,2026-07-13T00:57:17.277984,1.00273177,.00024821,12.8140,21.5242,333.4724,197.8201,0,U,25019,999,3321,0,-.72E-6,0
INMARSAT 3-F5,1998-006B,2026-07-13T05:15:01.523232,1.00273716,.00043139,9.7494,52.9958,61.1255,201.7574,0,U,25153,999,10415,0,-.301E-5,0
ABS-6,1999-053A,2026-07-13T04:51:38.592864,1.00272354,.00032997,0.0607,262.2173,190.3497,70.4070,0,U,25924,999,9810,0,-.122E-5,0
UFO 10 (USA 146),1999-063A,2026-07-12T20:14:46.195872,1.00272992,.00014986,9.8590,27.0728,111.3860,73.0111,0,U,25967,999,9760,0,-.195E-5,0
ASIASTAR,2000-016A,2026-07-13T01:59:10.246272,1.00272079,.00036989,9.1876,57.8728,66.0689,301.8300,0,U,26107,999,9618,0,-.343E-5,0
USA 149 (DSP 20),2000-024A,2026-07-13T07:36:02.274336,1.00281340,.0001755,13.1896,11.6620,309.4411,279.4197,0,U,26356,999,3317,0,.87E-6,0
TDRS 8,2000-034A,2026-07-13T01:53:25.796256,1.00272760,.00041289,12.7232,31.0984,35.1484,337.9200,0,U,26388,999,9544,0,-.206E-5,0
NSS-11,2000-059A,2026-07-13T05:54:45.447840,1.00270462,.0002806,2.1915,81.0790,35.6153,79.1183,0,U,26554,999,4155,0,.2E-6,0
USA 153,2000-065A,2026-07-12T20:59:43.787904,1.00273238,.00020734,11.6673,35.2028,58.4314,286.5146,0,U,26575,999,3318,0,-.334E-5,0
AMC-6,2000-067A,2026-07-13T00:50:47.899968,1.00271798,.00038185,0.2157,83.6181,42.6861,42.2687,0,U,26580,999,9415,0,.86E-6,0
USA 157 (MILSTAR-2 2),2001-009A,2026-07-13T07:19:53.276736,1.00273347,.00405323,11.5708,19.5967,179.3000,52.1638,0,U,26715,999,3320,0,.1E-5,0
INTELSAT 902 (IS-902),2001-039A,2026-07-13T02:28:01.879392,1.00270527,.00044272,6.1801,71.4647,37.8102,168.6068,0,U,26900,999,9095,0,-.291E-5,0
USA 164 (MILSTAR-2 3),2002-001A,2026-07-13T04:07:02.737344,1.00276392,.00985089,11.2098,21.7436,8.9524,341.1298,0,U,27168,999,3321,0,.9E-6,0
INTELSAT 904 (IS-904),2002-007A,2026-07-12T23:37:33.863808,1.00271153,.00053726,6.9819,68.8712,24.1748,160.7451,0,U,27380,999,5202,0,-.233E-5,0
DIRECTV 5 (TEMPO 1),2002-023A,2026-07-13T08:01:20.532288,1.00271116,.00030297,4.9421,74.9829,43.8588,182.5932,0,U,27426,999,8838,0,-.65E-6,0
INTELSAT 905 (IS-905),2002-027A,2026-07-13T06:29:28.487040,1.00271219,.00034458,6.8166,69.4817,46.1683,135.6585,0,U,27438,999,5162,0,.85E-6,0
GALAXY 3C (G-3C),2002-030A,2026-07-13T03:17:38.652288,1.00270623,.00014955,3.7981,77.6387,36.4860,131.4738,0,U,27445,999,4675,0,-.158E-5,0
INTELSAT 906 (IS-906),2002-041A,2026-07-13T05:12:52.373376,1.00272740,.00038762,5.8663,72.6001,22.4752,338.3809,0,U,27513,999,8729,0,.5E-7,0
