TDRS 3                  
1 19548U 88091B   26194.25808516 -.00000304  00000+0  00000+0 0  9996
2 19548  12.5822 340.8266 0037029 355.4835 358.5834  1.00263169125644
FLTSATCOM 8 (USA 46)    
1 20253U 89077A   26193.80162081 -.00000372  00000+0  00000+0 0  9991
2 20253  12.4142 351.0067 0003472  69.8924 283.9138  1.00264240260814
SKYNET 4C               
1 20776U 90079A   26194.10234422 -.00000100  00000+0  00000+0 0  9997
2 20776  13.3299 349.6488 0002792 136.2115  45.7806  0.98577722   290
TDRS 5                  
1 21639U 91054B   26194.30577738  .00000077  00000+0  00000+0 0  9994
2 21639  14.0678 353.5825 0007446 257.8458 342.1330  1.00272661127977
TDRS 6                  
1 22314U 93003B   26194.29211280 -.00000303  00000+0  00000+0 0  9999
2 22314  14.1831 356.8618 0008254 183.7825 169.6176  1.00280452122667
UFO 2 (USA 95)          
1 22787U 93056A   26194.13892058  .00000117  00000+0  00000+0 0  9994
2 22787  11.9040   3.4086 0002616   8.5210 357.7362  1.00269447118810
USA 99 (MILSTAR-1 1)    
1 22988U 94009A   26192.64057240 -.00000002  00000+0  00000+0 0  9990
2 22988  17.6619  27.4499 0001626 196.6248 164.5715  0.98720423 33197
UFO 4 (USA 108)         
1 23467U 95003A   26194.23867959 -.00000028  00000+0  00000+0 0  9999
2 23467   9.6746  13.0177 0003138  97.3719  78.9981  1.00275988115218
TDRS 7                  
1 23613U 95035B   26193.93699517 -.00000246  00000+0  00000+0 0  9998
2 23613  13.3664 348.0100 0011564  85.8885 283.4852  1.00274480113514
USA 115 (MILSTAR-1 2)   
1 23712U 95060A   26194.23059980 -.00000211  00000+0  00000+0 0  9996
2 23712  14.0819   3.5490 0006065 123.7777 156.7805  1.00272776 33147
INMARSAT 3-F1           
1 23839U 96020A   26194.23418008  .00000035  00000+0  00000+0 0  9996
2 23839  10.6534  46.3907 0004418  86.5841 119.7415  0.99979889110518
INMARSAT 3-F2           
1 24307U 96053A   26193.94401521 -.00000368  00000+0  00000+0 0  9992
2 24307   9.9131  53.6706 0006400  52.7758 288.2453  0.99992754109176
INMARSAT 3-F3           
1 24674U 96070A   26194.27894836  .00000039  00000+0  00000+0 0  9994
2 24674  10.3728  49.3991 0003541  74.2910 283.7749  0.99994514108163
USA 134                 
1 25019U 97065A   26194.03978331 -.00000072  00000+0  00000+0 0  9998
2 25019  12.8140  21.5242 0002482 333.4724 197.8201  1.00273177 33218
INMARSAT 3-F5           
1 25153U 98006B   26194.21876763 -.00000301  00000+0  00000+0 0  9994
2 25153   9.7494  52.9958 0004313  61.1255 201.7574  1.00273716104154
ABS-6                   
1 25924U 99053A   26194.20253001 -.00000122  00000+0  00000+0 0  9997
2 25924   0.0607 262.2173 0003299 190.3497  70.4070  1.00272354 98106
UFO 10 (USA 146)        
1 25967U 99063A   26193.84359023 -.00000195  00000+0  00000+0 0  9995
2 25967   9.8590  27.0728 0001498 111.3860  73.0111  1.00272992 97607
ASIASTAR                
1 26107U 00016A   26194.08275748 -.00000343  00000+0  00000+0 0  9995
2 26107   9.1876  57.8728 0003698  66.0689 301.8300  1.00272079 96184
USA 149 (DSP 20)        
1 26356U 00024A   26194.31669299  .00000087  00000+0  00000+0 0  9998
2 26356  13.1896  11.6620 0001755 309.4411 279.4197  1.00281340 33170
TDRS 8                  
1 26388U 00034A   26194.07877079 -.00000206  00000+0  00000+0 0  9998
2 26388  12.7232  31.0984 0004128  35.1484 337.9200  1.00272760 95442
NSS-11                  
1 26554U 00059A   26194.24635935  .00000020  00000+0  00000+0 0  9995
2 26554   2.1915  81.0790 0002806  35.6153  79.1183  1.00270462 41552
USA 153                 
1 26575U 00065A   26193.87481236 -.00000334  00000+0  00000+0 0  9995
2 26575  11.6673  35.2028 0002073  58.4314 286.5146  1.00273238 33181
AMC-6                   
1 26580U 00067A   26194.03527662  .00000086  00000+0  00000+0 0  9999
2 26580   0.2157  83.6181 0003818  42.6861  42.2687  1.00271798 94155
USA 157 (MILSTAR-2 2)   
1 26715U 01009A   26194.30547774  .00000100  00000+0  00000+0 0  9999
2 26715  11.5708  19.5967 0040532 179.3000  52.1638  1.00273347 33206
INTELSAT 902 (IS-902)   
1 26900U 01039A   26194.10279953 -.00000291  00000+0  00000+0 0  9999
2 26900   6.1801  71.4647 0004427  37.8102 168.6068  1.00270527 90954
USA 164 (MILSTAR-2 3)   
1 27168U 02001A   26194.17155946  .00000090  00000+0  00000+0 0  9994
2 27168  11.2098  21.7436 0098508   8.9524 341.1298  1.00276392 33215
INTELSAT 904 (IS-904)   
1 27380U 02007A   26193.98441972 -.00000233  00000+0  00000+0 0  9991
2 27380   6.9819  68.8712 0005372  24.1748 160.7451  1.00271153 52023
DIRECTV 5 (TEMPO 1)     
1 27426U 02023A   26194.33426542 -.00000065  00000+0  00000+0 0  9999
2 27426   4.9421  74.9829 0003029  43.8588 182.5932  1.00271116 88388
INTELSAT 905 (IS-905)   
1 27438U 02027A   26194.27046860  .00000085  00000+0  00000+0 0  9991
2 27438   6.8166  69.4817 0003445  46.1683 135.6585  1.00271219 51622
GALAXY 3C (G-3C)        
1 27445U 02030A   26194.13725292 -.00000158  00000+0  00000+0 0  9993
2 27445   3.7981  77.6387 0001495  36.4860 131.4738  1.00270623 46756
INTELSAT 906 (IS-906)   
1 27513U 02041A   26194.21727284  .00000005  00000+0  00000+0 0  9993
2 27513   5.8663  72.6001 0003876  22.4752 338.3809  1.00272740 87293
